OBJECT_NAME,OBJECT_ID,EPOCH,MEAN_MOTION,ECCENTRICITY,INCLINATION,RA_OF_ASC_NODE,ARG_OF_PERICENTER,MEAN_ANOMALY,EPHEMERIS_TYPE,CLASSIFICATION_TYPE,NORAD_CAT_ID,ELEMENT_SET_NO,REV_AT_EPOCH,BSTAR,MEAN_MOTION_DOT,MEAN_MOTION_DDOT
DMSP 5D-3 F16 (USA 172),2003-048A,2026-06-18T14:22:17.957280,14.14483197,.00078101,98.9890,193.4365,136.5758,23.7152,0,U,28054,999,16968,.6382383E-5,-.33E-6,0
METEOSAT-9 (MSG-2),2005-049B,2026-06-17T20:09:04.483008,1.00272435,.00016603,9.3634,54.1628,344.5140,215.3198,0,U,28912,999,700,0,.114E-5,0
DMSP 5D-3 F17 (USA 191),2006-050A,2026-06-18T14:00:50.882400,14.14993117,.00111274,98.7378,176.1255,55.7492,304.4734,0,U,29522,999,1262,.15304287E-4,-.14E-6,0
FENGYUN 3A,2008-026A,2026-06-18T14:21:04.494816,14.19571403,.00096448,98.6883,110.4048,119.9737,240.2398,0,U,32958,999,93560,.4902108E-4,.6E-6,0
GOES 14,2009-033A,2026-06-18T13:35:33.696672,1.00110477,.00018225,1.6945,83.0259,12.2907,156.4083,0,U,35491,999,660,0,-.303E-5,0
DMSP 5D-3 F18 (USA 210),2009-057A,2026-06-18T13:19:46.058016,14.14897516,.000992,98.9038,150.3215,245.1771,114.8370,0,U,35951,999,85978,.13877952E-3,.223E-5,0
EWS-G2 (GOES 15),2010-008A,2026-06-18T13:13:29.279712,1.00266272,.00048186,1.2823,82.8232,42.0609,43.9667,0,U,36411,999,5965,0,.13E-6,0
COMS 1,2010-032A,2026-06-18T03:32:21.653376,0.99162666,.00115422,4.8083,75.3434,11.9093,301.8413,0,U,36744,999,5109,0,.7E-6,0
FENGYUN 3B,2010-059A,2026-06-18T14:16:40.006272,14.14841529,.00219631,98.9613,215.6159,179.9725,333.7718,0,U,37214,999,80762,.73561153E-4,.97E-6,0
SUOMI NPP,2011-061A,2026-06-18T14:37:22.875456,14.19517636,.0001456,98.7953,110.4756,3.3942,356.7244,0,U,37849,999,75864,.47083762E-4,.55E-6,0
METEOSAT-10 (MSG-3),2012-035B,2026-06-18T07:47:28.502880,1.00266031,.00013964,4.6751,61.0179,0.2073,322.5258,0,U,38552,999,5086,0,-.14E-6,0
METOP-B,2012-049A,2026-06-18T14:20:19.776768,14.21433119,.00021478,98.6504,221.0686,16.0748,344.0497,0,U,38771,999,71346,.60272217E-4,.88E-6,0
INSAT-3D,2013-038B,2026-06-18T15:03:30.235392,1.00268585,.0000585,1.9307,82.5227,320.2154,219.4952,0,U,39216,999,4709,0,-.346E-5,0
FENGYUN 3C,2013-052A,2026-06-18T14:22:01.747776,14.15755348,.00151777,98.4987,143.4086,23.7386,336.4485,0,U,39260,999,65876,.5841242E-4,.73E-6,0
METEOR-M 2,2014-037A,2026-06-18T14:58:15.761856,14.21462120,.00066918,98.5115,145.3115,40.7174,319.4503,0,U,40069,999,61952,.10468681E-3,.187E-5,0
HIMAWARI-8,2014-060A,2026-06-18T13:35:26.209248,1.00271241,.00010677,0.0129,35.3318,56.2324,159.7646,0,U,40267,999,4277,0,-.282E-5,0
FENGYUN 2G,2014-090A,2026-06-18T15:06:28.632384,1.00271470,.00039364,5.6433,72.7978,158.9318,1.4413,0,U,40367,999,4201,0,-.311E-5,0
METEOSAT-11 (MSG-4),2015-034A,2026-06-18T04:24:45.376128,1.00264280,.00024999,3.2036,71.1007,345.8568,285.3054,0,U,40732,999,722,0,.56E-6,0
ELEKTRO-L 2,2015-074A,2026-06-18T00:52:34.633344,1.00270556,.00009025,6.6975,70.5132,256.1704,298.2263,0,U,41105,999,3851,0,-.126E-5,0
SENTINEL-3A,2016-011A,2026-06-18T14:51:34.509024,14.26732839,.0001405,98.6250,236.9826,101.7264,258.4074,0,U,41335,999,53826,.56613673E-4,.93E-6,0
INSAT-3DR,2016-054A,2026-06-18T13:16:25.120128,1.00271048,.0010534,0.1102,86.2273,187.5515,266.0837,0,U,41752,999,3583,0,-.83E-6,0
HIMAWARI-9,2016-064A,2026-06-18T13:21:49.014720,1.00270363,.00009789,0.0148,292.9576,197.3306,117.7181,0,U,41836,999,3522,0,-.281E-5,0
GOES 16,2016-071A,2026-06-18T14:08:08.075040,1.00271152,.0000245,0.3458,85.5049,324.7379,323.9211,0,U,41866,999,3511,0,-.97E-6,0
FENGYUN 4A,2016-077A,2026-06-18T16:07:45.624576,1.00267699,.00086953,2.3269,80.2604,153.4257,38.9002,0,U,41882,999,3494,0,-.364E-5,0
CYGFM05,2016-078A,2026-06-18T12:37:40.080576,15.56722595,.00071019,34.9563,251.7231,164.6539,195.4402,0,U,41884,999,52896,.25572586E-3,.18897E-3,0
CYGFM04,2016-078B,2026-06-18T13:21:23.836032,15.61577331,.00068235,34.9309,219.1431,207.5066,152.5299,0,U,41885,999,52921,.25710046E-3,.22879E-3,0
CYGFM02,2016-078C,2026-06-18T13:18:36.114624,15.64576545,.00078942,34.9390,213.6514,208.8143,151.2149,0,U,41886,999,52938,.2686532E-3,.26934E-3,0
CYGFM01,2016-078D,2026-06-18T13:52:52.845888,15.57403870,.00068572,34.9392,252.4239,158.7047,201.3964,0,U,41887,999,52892,.26212527E-3,.19875E-3,0
CYGFM08,2016-078E,2026-06-18T12:51:05.719104,15.60079570,.00084767,34.9419,232.2513,189.9971,170.0587,0,U,41888,999,52918,.25780648E-3,.2166E-3,0
CYGFM07,2016-078G,2026-06-18T13:24:16.644672,15.60178394,.00072689,34.9432,220.4381,206.5978,153.4375,0,U,41890,999,52921,.25688333E-3,.21654E-3,0
CYGFM03,2016-078H,2026-06-18T12:42:32.186016,15.60171185,.00067101,34.9387,222.5679,194.5255,165.5278,0,U,41891,999,52918,.25706787E-3,.2166E-3,0
