DMSP 5D-3 F16 (USA 172) 
1 28054U 03048A   26169.59881895 -.00000033  00000+0  63824-5 0  9995
2 28054  98.9890 193.4365 0007810 136.5758  23.7152 14.14483197169688
METEOSAT-9 (MSG-2)      
1 28912U 05049B   26168.83963522  .00000114  00000+0  00000+0 0  9995
2 28912   9.3634  54.1628 0001660 344.5140 215.3198  1.00272435  7009
DMSP 5D-3 F17 (USA 191) 
1 29522U 06050A   26169.58392225 -.00000014  00000+0  15304-4 0  9993
2 29522  98.7378 176.1255 0011127  55.7492 304.4734 14.14993117 12621
FENGYUN 3A              
1 32958U 08026A   26169.59796869  .00000060  00000+0  49021-4 0  9991
2 32958  98.6883 110.4048 0009644 119.9737 240.2398 14.19571403935605
GOES 14                 
1 35491U 09033A   26169.56636223 -.00000303  00000+0  00000+0 0  9999
2 35491   1.6945  83.0259 0001822  12.2907 156.4083  1.00110477  6600
DMSP 5D-3 F18 (USA 210) 
1 35951U 09057A   26169.55539419  .00000223  00000+0  13878-3 0  9995
2 35951  98.9038 150.3215 0009920 245.1771 114.8370 14.14897516859783
EWS-G2 (GOES 15)        
1 36411U 10008A   26169.55103333  .00000013  00000+0  00000+0 0  9993
2 36411   1.2823  82.8232 0004818  42.0609  43.9667  1.00266272 59656
COMS 1                  
1 36744U 10032A   26169.14747284  .00000070  00000+0  00000+0 0  9996
2 36744   4.8083  75.3434 0011542  11.9093 301.8413  0.99162666 51091
FENGYUN 3B              
1 37214U 10059A   26169.59490748  .00000097  00000+0  73561-4 0  9993
2 37214  98.9613 215.6159 0021963 179.9725 333.7718 14.14841529807629
SUOMI NPP               
1 37849U 11061A   26169.60929254  .00000055  00000+0  47084-4 0  9997
2 37849  98.7953 110.4756 0001456   3.3942 356.7244 14.19517636758649
METEOSAT-10 (MSG-3)     
1 38552U 12035B   26169.32463545 -.00000014  00000+0  00000+0 0  9994
2 38552   4.6751  61.0179 0001396   0.2073 322.5258  1.00266031 50868
METOP-B                 
1 38771U 12049A   26169.59745112  .00000088  00000+0  60272-4 0  9996
2 38771  98.6504 221.0686 0002147  16.0748 344.0497 14.21433119713466
INSAT-3D                
1 39216U 13038B   26169.62743328 -.00000346  00000+0  00000+0 0  9997
2 39216   1.9307  82.5227 0000585 320.2154 219.4952  1.00268585 47091
FENGYUN 3C              
1 39260U 13052A   26169.59863134  .00000073  00000+0  58412-4 0  9997
2 39260  98.4987 143.4086 0015177  23.7386 336.4485 14.15755348658761
METEOR-M 2              
1 40069U 14037A   26169.62379354  .00000187  00000+0  10469-3 0  9995
2 40069  98.5115 145.3115 0006691  40.7174 319.4503 14.21462120619526
HIMAWARI-8              
1 40267U 14060A   26169.56627557 -.00000282  00000+0  00000+0 0  9998
2 40267   0.0129  35.3318 0001067  56.2324 159.7646  1.00271241 42778
FENGYUN 2G              
1 40367U 14090A   26169.62949806 -.00000311  00000+0  00000+0 0  9996
2 40367   5.6433  72.7978 0003936 158.9318   1.4413  1.00271470 42011
METEOSAT-11 (MSG-4)     
1 40732U 15034A   26169.18385852  .00000056  00000+0  00000+0 0  9992
2 40732   3.2036  71.1007 0002499 345.8568 285.3054  1.00264280  7222
ELEKTRO-L 2             
1 41105U 15074A   26169.03651196 -.00000126  00000+0  00000+0 0  9991
2 41105   6.6975  70.5132 0000902 256.1704 298.2263  1.00270556 38515
SENTINEL-3A             
1 41335U 16011A   26169.61914941  .00000093  00000+0  56614-4 0  9991
2 41335  98.6250 236.9826 0001405 101.7264 258.4074 14.26732839538264
INSAT-3DR               
1 41752U 16054A   26169.55306852 -.00000083  00000+0  00000+0 0  9993
2 41752   0.1102  86.2273 0010534 187.5515 266.0837  1.00271048 35832
HIMAWARI-9              
1 41836U 16064A   26169.55681730 -.00000281  00000+0  00000+0 0  9998
2 41836   0.0148 292.9576 0000978 197.3306 117.7181  1.00270363 35220
GOES 16                 
1 41866U 16071A   26169.58898235 -.00000097  00000+0  00000+0 0  9997
2 41866   0.3458  85.5049 0000245 324.7379 323.9211  1.00271152 35114
FENGYUN 4A              
1 41882U 16077A   26169.67205584 -.00000364  00000+0  00000+0 0  9997
2 41882   2.3269  80.2604 0008695 153.4257  38.9002  1.00267699 34944
CYGFM05                 
1 41884U 16078A   26169.52615834  .00018897  00000+0  25573-3 0  9992
2 41884  34.9563 251.7231 0007101 164.6539 195.4402 15.56722595528963
CYGFM04                 
1 41885U 16078B   26169.55652588  .00022879  00000+0  25710-3 0  9991
2 41885  34.9309 219.1431 0006823 207.5066 152.5299 15.61577331529213
CYGFM02                 
1 41886U 16078C   26169.55458466  .00026934  00000+0  26865-3 0  9999
2 41886  34.9390 213.6514 0007894 208.8143 151.2149 15.64576545529381
CYGFM01                 
1 41887U 16078D   26169.57838942  .00019875  00000+0  26213-3 0  9996
2 41887  34.9392 252.4239 0006857 158.7047 201.3964 15.57403870528926
CYGFM08                 
1 41888U 16078E   26169.53548286  .00021660  00000+0  25781-3 0  9996
2 41888  34.9419 232.2513 0008476 189.9971 170.0587 15.60079570529181
CYGFM07                 
1 41890U 16078G   26169.55852598  .00021654  00000+0  25688-3 0  9994
2 41890  34.9432 220.4381 0007268 206.5978 153.4375 15.60178394529210
CYGFM03                 
1 41891U 16078H   26169.52953919  .00021660  00000+0  25707-3 0  9990
2 41891  34.9387 222.5679 0006710 194.5255 165.5278 15.60171185529181
